# Made by eph2tle, compiled Feb  2 2025 14:11:09
# Run at Sat Mar  1 13:52:23 2025 UTC
#
#    The following TLEs (Two-Line Elements) were generated by fitting
# a numerically-integrated ephemeris,  based on the orbit given below,
# to the SDP4/SGP4 models.  Each TLE is good for the interval between
# its epoch and the epoch of the subsequent TLE (usually one day).
# The maximum deviation between the numerically integrated ephemerides
# and the TLE-based ephemeris, in kilometers,  is given for each TLE
# as the "worst residual".
#
#    This fitting is done using the 'eph2tle' code packaged with Find_Orb.
# The code has details on how the TLEs were computed :
#
#    https://github.com/Bill-Gray/find_orb/eph2tle.cpp
#
#    Be warned:  the error given is that between the numerically
# integrated ephems and the TLE model.  There will usually be at
# least some additional difference between the ephems and the actual
# motion of the satellite,  especially if the ephemerides are based
# on a short arc.  If the following orbital elements say something
# like "[based on] 10 observations 2015 Jan. 1-13",  and the TLEs
# are for 2015 May,  the extrapolation may be tenuous at best.  If
# your application requires a specific level of accuracy,  you may
# want to contact me;  I can give you some idea as to the fit of the
# underlying data (and possibly TLEs based on newer data).
#
#   You can usually find the underlying observational data,  and the
# fitted orbit,  residuals,  ephemerides,  and sometimes some comments
# about the object,  among the pages listed at
#
#    https://www.projectpluto.com/pluto/mpecs/pseudo.htm
#
#    WARNING:  for this object,  "normal" TLEs cannot be fitted.  (This
# usually means an object with an hyperbolic or nearly-parabolic orbit.)
# For this and similar cases,   an alternative model is used,  in which
# most of the traditional TLE data is replaced by six signed 8-digit hex
# numbers.  These six numbers are a state vector,  numerically integrated
# using a simplified force model.  This is necessary for objects at L2 or
# L1,  and sometimes for objects in high orbits where the SDP4/SGP4 model
# fails.  Some documentation is in 'get_el.cpp' in the source code at
# https://www.github.com/Bill-Gray/sat_code ; look for 'hex' in that file,
# with the actual integration done in 'sdp4.cpp'.  But be aware:  it's my
# own extension,  doesn't work with other code,  and is therefore used
# only when necessary.
#
#    Also,  if you use a TLE outside the "correct" time range (between
# its MJD and that of the next TLE),  all bets are off.  I've carefully
# computed and minimized the worst error over the "correct" time frame,
# but the ephemeris may (or may not) diverge wildly outside of it.
#
# Ephem range: 60676.000000 60862.000000 1.000000
# Created Sat Mar  1 08:52:17 2025
# Ephemeris start:  1 Jan 2025  0:00:00
# Ephemeris end:    6 Jul 2025  0:00:00
# Times are all TDT
# Positions/velocities are in equatorial J2000
# Orbital elements:  2024-083A = NORAD 59627 = Chang'e-6 Guidao Qi
#    Perihelion 2025 Feb 1.897698 +/- 0.00014901 TT = 21:32:41.1 (JD 2460708.397698)
# Epoch 2025 Feb  9.0 TT; AMR 0.016449 +/- 0.00029474 m^2/kg       Find_Orb
# M   6.651811468 +/- 0.0001403       Earth MOID: 0.0078
# n   0.936571251 +/- 3.4046e-7       Peri.  224.912017 +/- 0.000721
# a   1.034607209 +/- 2.5073e-7       Node   267.599885 +/- 0.000713
# e   0.03870733 +/- 1.8243e-7        Incl.    0.040454 +/- 7.9315e-7
# P   1.052/384.374d         H 27.02  G  0.15   U  2.7
# q 0.994560319 +/- 5.9126e-8    Q 1.074654100 +/- 4.4826e-7
# 64 of 253 observations 2024 Dec. 20-2025 Mar. 1; mean residual 0".265
#
# 1 NoradU COSPAR   Epoch.epoch     dn/dt/2  d2n/dt2/6 BSTAR    T El# C
# 2 NoradU Inclina RAAscNode Eccent  ArgPeri MeanAno  MeanMotion Rev# C

# Worst residual: 0.84 km
# MJD 60676.000000 (2025 Jan  1  0:00)
2024-083A = NORAD 59627 = Chang'e-6 Guidao Qi
1 59627U 24083A   24366.99919926 -000SBS2Y +00QGEKSO +00BLYEG5H 26176
2 59627                          +0000GSOO +00005MVO -00004KAT     01

# Worst residual: 0.83 km
# MJD 60677.000000 (2025 Jan  2  0:00)
2024-083A = NORAD 59627 = Chang'e-6 Guidao Qi
1 59627U 24083A   25001.99919926 -000OESPL +00QHTQLS +00BKW72NH 26175
2 59627                          +0000FT3S +000066Z8 -00004AA9     08

# Worst residual: 0.85 km
# MJD 60678.000000 (2025 Jan  3  0:00)
2024-083A = NORAD 59627 = Chang'e-6 Guidao Qi
1 59627U 24083A   25002.99919926 -000KR8TY +00QJDBP3 +00BJW7TGH 26175
2 59627                          +0000EM7Q +00006NKA -000041US     00

# Worst residual: 0.87 km
# MJD 60679.000000 (2025 Jan  4  0:00)
2024-083A = NORAD 59627 = Chang'e-6 Guidao Qi
1 59627U 24083A   25003.99919926 -000HES47 +00QL0D1Z +00BIY0GWH 26170
2 59627                          +0000D8VN +00006ZKX -00003VKU     09

# Worst residual: 0.91 km
# MJD 60680.000000 (2025 Jan  5  0:00)
2024-083A = NORAD 59627 = Chang'e-6 Guidao Qi
1 59627U 24083A   25004.99919926 -000EETCO +00QMPNCE +00BI10C8H 26178
2 59627                          +0000BQA1 +0000766A -00003RWZ     05

# Worst residual: 0.97 km
# MJD 60681.000000 (2025 Jan  6  0:00)
2024-083A = NORAD 59627 = Chang'e-6 Guidao Qi
1 59627U 24083A   25005.99919926 -000BSG1S +00QOFSYF +00BH4JDYH 26175
2 59627                          +0000A3TS +000076RC -00003R6E     07

# Worst residual: 1.07 km
# MJD 60682.000000 (2025 Jan  7  0:00)
2024-083A = NORAD 59627 = Chang'e-6 Guidao Qi
1 59627U 24083A   25006.99919926 -0009KEV1 +00QQ5CLF +00BG7VMOH 26173
2 59627                          +00008F2I +0000712L -00003THY     05

# Worst residual: 1.17 km
# MJD 60683.000000 (2025 Jan  8  0:00)
2024-083A = NORAD 59627 = Chang'e-6 Guidao Qi
1 59627U 24083A   25007.99919926 -0007R2Y8 +00QRSS5J +00BFAAQ6H 26170
2 59627                          +00006PKD +00006P6U -00003YTQ     03

# Worst residual: 1.26 km
# MJD 60684.000000 (2025 Jan  9  0:00)
2024-083A = NORAD 59627 = Chang'e-6 Guidao Qi
1 59627U 24083A   25008.99919926 -0006CGBX +00QTCNOW +00BEB3LWH 26172
2 59627                          +000050S0 +000067J9 -000046X3     02

# Worst residual: 1.29 km
# MJD 60685.000000 (2025 Jan 10  0:00)
2024-083A = NORAD 59627 = Chang'e-6 Guidao Qi
1 59627U 24083A   25009.99919926 -0005C77P +00QUROB8 +00BD9O1HH 26171
2 59627                          +00003DYJ +00005KUI -00004HD6     00

# Worst residual: 1.28 km
# MJD 60686.000000 (2025 Jan 11  0:00)
2024-083A = NORAD 59627 = Chang'e-6 Guidao Qi
1 59627U 24083A   25010.99919926 -0004PQ9N +00QW0QQ8 +00BC5I0HH 26172
2 59627                          +00001U1T +00004U4Y -00004TLW     06

# Worst residual: 1.27 km
# MJD 60687.000000 (2025 Jan 12  0:00)
2024-083A = NORAD 59627 = Chang'e-6 Guidao Qi
1 59627U 24083A   25011.99919926 -0004G9NQ +00QX3197 +00BAY8S7H 26175
2 59627                          +00000DLU +000040LL -000056ZS     07

# Worst residual: 1.28 km
# MJD 60688.000000 (2025 Jan 13  0:00)
2024-083A = NORAD 59627 = Chang'e-6 Guidao Qi
1 59627U 24083A   25012.99919926 -0004IYIQ +00QXY0VZ +00B9NPFBH 26171
2 59627                          -00000Z83 +000035HM -00005KU9     06

# Worst residual: 1.32 km
# MJD 60689.000000 (2025 Jan 14  0:00)
2024-083A = NORAD 59627 = Chang'e-6 Guidao Qi
1 59627U 24083A   25013.99919926 -0004WYFH +00QYLH83 +00B89URKH 26171
2 59627                          -000028OO +000029ZD -00005YIE     09

# Worst residual: 1.35 km
# MJD 60690.000000 (2025 Jan 15  0:00)
2024-083A = NORAD 59627 = Chang'e-6 Guidao Qi
1 59627U 24083A   25014.99919926 -0005LIGB +00QZ1F81 +00B6SSPKH 26171
2 59627                          -00003FBS +00001F1V -00006BH5     09

# Worst residual: 1.34 km
# MJD 60691.000000 (2025 Jan 16  0:00)
2024-083A = NORAD 59627 = Chang'e-6 Guidao Qi
1 59627U 24083A   25015.99919926 -0006K1FB +00QZA33C +00B58R4JH 26171
2 59627                          -00004JWX +00000LE9 -00006NCM     02

# Worst residual: 1.26 km
# MJD 60692.000000 (2025 Jan 17  0:00)
2024-083A = NORAD 59627 = Chang'e-6 Guidao Qi
1 59627U 24083A   25016.99919926 -0007S5AN +00QZBTTX +00B3M0JIH 26177
2 59627                          -00005NB9 -000006KJ -00006XWI     00

# Worst residual: 1.15 km
# MJD 60693.000000 (2025 Jan 18  0:00)
2024-083A = NORAD 59627 = Chang'e-6 Guidao Qi
1 59627U 24083A   25017.99919926 -00099NKV +00QZ72W1 +00B1WWW9H 26171
2 59627                          -00006QE5 -00000WOP -00007718     08

# Worst residual: 1.05 km
# MJD 60694.000000 (2025 Jan 19  0:00)
2024-083A = NORAD 59627 = Chang'e-6 Guidao Qi
1 59627U 24083A   25018.99919926 -000B0L3S +00QYWA9O +00B05SIIH 26171
2 59627                          -00007TYX -00001KZ4 -00007EQX     03

# Worst residual: 1.01 km
# MJD 60695.000000 (2025 Jan 20  0:00)
2024-083A = NORAD 59627 = Chang'e-6 Guidao Qi
1 59627U 24083A   25019.99919926 -000D15DC +00QYFV5G +00AYCZCVH 26176
2 59627                          -00008YRR -000027LD -00007L4A     02

# Worst residual: 1.05 km
# MJD 60696.000000 (2025 Jan 21  0:00)
2024-083A = NORAD 59627 = Chang'e-6 Guidao Qi
1 59627U 24083A   25020.99919926 -000FBPSM +00QXU70M +00AWISJ2H 26176
2 59627                          -0000A5FW -00002SRU -00007Q9N     07

# Worst residual: 1.16 km
# MJD 60697.000000 (2025 Jan 22  0:00)
2024-083A = NORAD 59627 = Chang'e-6 Guidao Qi
1 59627U 24083A   25021.99919926 -000HWT29 +00QX3L37 +00AUNHYKH 26172
2 59627                          -0000BEK5 -00003CST -00007UCF     09

# Worst residual: 1.29 km
# MJD 60698.000000 (2025 Jan 23  0:00)
2024-083A = NORAD 59627 = Chang'e-6 Guidao Qi
1 59627U 24083A   25022.99919926 -000KT2OK +00QW89XW +00ASRC69H 26173
2 59627                          -0000CQO0 -00003W03 -00007XIX     07

# Worst residual: 1.36 km
# MJD 60699.000000 (2025 Jan 24  0:00)
2024-083A = NORAD 59627 = Chang'e-6 Guidao Qi
1 59627U 24083A   25023.99919926 -000O1ARC +00QV8F3A +00AQUI1WH 26173
2 59627                          -0000E6AF -00004ERH -0000800L     02

